NORAD_CAT_ID,OBJECT_NAME,OBJECT_TYPE,EPOCH,MEAN_MOTION,ECCENTRICITY,INCLINATION,RA_OF_ASC_NODE,ARG_OF_PERICENTER,MEAN_ANOMALY,BSTAR,MEAN_MOTION_DOT,MEAN_MOTION_DDOT,TLE_LINE0,TLE_LINE1,TLE_LINE2,SEMIMAJOR_AXIS,PERIOD,APOGEE,PERIGEE,DECAYED
52541.0,STARLINK-3845,PAYLOAD,2023-05-07 06:24:13,15.08840754,0.0001104,53.2161,111.2917,94.7297,265.3821,7.389e-05,8.88e-06,0.0,0 STARLINK-3845,1 52541U 22051J   23127.26682234  .00000888  00000-0  73890-4 0  9990,2 52541  53.2161 111.2917 0001104  94.7297 265.3821 15.08840754 54753,6917.878,95.438,540.507,538.979,0.0
52541.0,STARLINK-3845,PAYLOAD,2023-05-07 15:56:32,15.08839306,0.0001097,53.2163,109.5073,90.2679,269.8439,5.7088e-05,6.21e-06,0.0,0 STARLINK-3845,1 52541U 22051J   23127.66426403  .00000621  00000-0  57088-4 0  9994,2 52541  53.2163 109.5073 0001097  90.2679 269.8439 15.08839306 54816,6917.883,95.438,540.506,538.989,0.0
52541.0,STARLINK-3845,PAYLOAD,2023-05-08 04:39:37,15.08839147,0.000113,53.2164,107.1289,89.9279,270.1842,3.9655e-05,3.43e-06,0.0,0 STARLINK-3845,1 52541U 22051J   23128.19418605  .00000343  00000-0  39655-4 0  9999,2 52541  53.2164 107.1289 0001130  89.9279 270.1842 15.08839147 54961,6917.883,95.438,540.53,538.966,0.0
52541.0,STARLINK-3845,PAYLOAD,2023-05-08 15:47:19,15.08837941,0.0001148,53.2164,105.0465,87.6962,272.4161,1.6657e-05,-2.3e-07,0.0,0 STARLINK-3845,1 52541U 22051J   23128.65786739 -.00000023  00000-0  16657-4 0  9999,2 52541  53.2164 105.0465 0001148  87.6962 272.4161 15.08837941 54966,6917.887,95.438,540.546,538.958,0.0
52541.0,STARLINK-3845,PAYLOAD,2023-05-09 04:30:24,15.08840103,0.0001156,53.2159,102.6669,88.5431,271.5693,3.2188e-05,2.24e-06,0.0,0 STARLINK-3845,1 52541U 22051J   23129.18778611  .00000224  00000-0  32188-4 0  9997,2 52541  53.2159 102.6669 0001156  88.5431 271.5693 15.08840103 55043,6917.88,95.438,540.545,538.945,0.0
52541.0,STARLINK-3845,PAYLOAD,2023-05-10 04:21:11,15.08841658,0.0001235,53.2167,98.2065,95.2291,264.8842,0.00010388,1.366e-05,0.0,0 STARLINK-3845,1 52541U 22051J   23130.18138367  .00001366  00000-0  10388-3 0  9992,2 52541  53.2167  98.2065 0001235  95.2291 264.8842 15.08841658 55192,6917.875,95.437,540.595,538.886,0.0
52541.0,STARLINK-3845,PAYLOAD,2023-05-11 04:11:58,15.08843123,0.0001156,53.217,93.745,96.5159,263.5964,8.3673e-05,1.044e-05,0.0,0 STARLINK-3845,1 52541U 22051J   23131.17498237  .00001044  00000-0  83673-4 0  9998,2 52541  53.2170  93.7450 0001156  96.5159 263.5964 15.08843123 55340,6917.871,95.437,540.536,538.936,0.0
52541.0,STARLINK-3845,PAYLOAD,2023-05-12 04:02:46,15.08832617,0.0001126,53.2165,89.2871,90.0323,270.0798,-2.7121e-05,-7.19e-06,0.0,0 STARLINK-3845,1 52541U 22051J   23132.16859604 -.00000719  00000-0 -27121-4 0  9993,2 52541  53.2165  89.2871 0001126  90.0323 270.0798 15.08832617 55568,6917.903,95.438,540.547,538.989,0.0
52541.0,STARLINK-3845,PAYLOAD,2023-05-13 05:28:55,15.08847735,0.0001241,53.217,84.5297,109.7869,250.3257,0.00022151,3.24e-05,0.0,0 STARLINK-3845,1 52541U 22051J   23133.22842057  .00003240  00000-0  22151-3 0  9992,2 52541  53.2170  84.5297 0001241 109.7869 250.3257 15.08847735 55721,6917.857,95.437,540.58,538.863,0.0
52541.0,STARLINK-3845,PAYLOAD,2023-05-14 05:19:44,15.08833021,0.0001174,53.2173,80.0688,84.1835,275.9291,0.00011149,1.487e-05,0.0,0 STARLINK-3845,1 52541U 22051J   23134.22204118  .00001487  00000-0  11149-3 0  9999,2 52541  53.2173  80.0688 0001174  84.1835 275.9291 15.08833021 55873,6917.902,95.438,540.579,538.955,0.0
52541.0,STARLINK-3845,PAYLOAD,2023-05-15 00:24:21,15.0884646,0.0001242,53.2165,76.4998,84.2389,275.8744,9.7687e-06,-1.32e-06,0.0,0 STARLINK-3845,1 52541U 22051J   23135.01691216 -.00000132  00000-0  97687-5 0  9996,2 52541  53.2165  76.4998 0001242  84.2389 275.8744 15.08846460 55994,6917.861,95.437,540.585,538.866,0.0
52541.0,STARLINK-3845,PAYLOAD,2023-05-15 03:35:07,15.08850927,0.0001221,53.2164,75.9051,86.0278,274.0853,0.00010837,1.438e-05,0.0,0 STARLINK-3845,1 52541U 22051J   23135.14938964  .00001438  00000-0  10837-3 0  9993,2 52541  53.2164  75.9051 0001221  86.0278 274.0853 15.08850927 55941,6917.847,95.437,540.557,538.867,0.0
52541.0,STARLINK-3845,PAYLOAD,2023-05-15 13:07:26,15.08844052,0.0001307,53.2167,74.1213,75.1928,284.9209,4.097e-05,3.64e-06,0.0,0 STARLINK-3845,1 52541U 22051J   23135.54683363  .00000364  00000-0  40970-4 0  9996,2 52541  53.2167  74.1213 0001307  75.1928 284.9209 15.08844052 56006,6917.868,95.437,540.637,538.829,0.0
52541.0,STARLINK-3845,PAYLOAD,2023-05-16 03:25:55,15.08835173,0.0001612,53.2173,71.446,78.3603,281.757,6.4687e-05,7.41e-06,0.0,0 STARLINK-3845,1 52541U 22051J   23136.14300150  .00000741  00000-0  64687-4 0  9993,2 52541  53.2173  71.4460 0001612  78.3603 281.7570 15.08835173 56168,6917.895,95.438,540.875,538.645,0.0
52541.0,STARLINK-3845,PAYLOAD,2023-05-16 19:19:46,15.08842007,0.0001475,53.2172,68.4698,81.5318,278.5841,8.8126e-05,1.115e-05,0.0,0 STARLINK-3845,1 52541U 22051J   23136.80539779  .00001115  00000-0  88126-4 0  9997,2 52541  53.2172  68.4698 0001475  81.5318 278.5841 15.08842007 56194,6917.874,95.437,540.76,538.719,0.0
52541.0,STARLINK-3845,PAYLOAD,2023-05-17 01:41:18,15.08850975,0.0001204,53.217,67.2838,88.2115,271.9015,5.9463e-05,6.59e-06,0.0,0 STARLINK-3845,1 52541U 22051J   23137.07035228  .00000659  00000-0  59463-4 0  9991,2 52541  53.2170  67.2838 0001204  88.2115 271.9015 15.08850975 56300,6917.847,95.437,540.545,538.879,0.0
52541.0,STARLINK-3845,PAYLOAD,2023-05-18 01:32:06,15.08834796,0.0001313,53.2163,62.8224,90.7349,269.3793,0.00041503,6.323e-05,0.0,0 STARLINK-3845,1 52541U 22051J   23138.06396224  .00006323  00000-0  41503-3 0  9996,2 52541  53.2163  62.8224 0001313  90.7349 269.3793 15.08834796 56453,6917.896,95.438,540.67,538.853,0.0
52541.0,STARLINK-3845,PAYLOAD,2023-05-18 04:42:52,15.08844419,0.0001349,53.2167,62.2278,88.8656,271.249,0.00012281,1.667e-05,0.0,0 STARLINK-3845,1 52541U 22051J   23138.19643555  .00001667  00000-0  12281-3 0  9999,2 52541  53.2167  62.2278 0001349  88.8656 271.2490 15.08844419 56479,6917.867,95.437,540.665,538.799,0.0
52541.0,STARLINK-3845,PAYLOAD,2023-05-19 01:22:53,15.08837233,0.0001228,53.216,58.3622,82.2849,277.8282,-1.9491e-05,-5.98e-06,0.0,0 STARLINK-3845,1 52541U 22051J   23139.05755976 -.00000598  00000-0 -19491-4 0  9991,2 52541  53.2160  58.3622 0001228  82.2849 277.8282 15.08837233 56601,6917.889,95.438,540.603,538.904,0.0
52541.0,STARLINK-3845,PAYLOAD,2023-05-19 22:02:53,15.08840984,0.0001205,53.2173,54.4938,92.5786,267.5344,4.7636e-05,4.7e-06,0.0,0 STARLINK-3845,1 52541U 22051J   23139.91867867  .00000470  00000-0  47636-4 0  9998,2 52541  53.2173  54.4938 0001205  92.5786 267.5344 15.08840984 56669,6917.877,95.437,540.576,538.909,0.0
52541.0,STARLINK-3845,PAYLOAD,2023-05-19 23:38:16,15.08841936,0.0001201,53.2175,54.1969,89.299,270.814,5.7025e-05,6.2e-06,0.0,0 STARLINK-3845,1 52541U 22051J   23139.98491794  .00000620  00000-0  57025-4 0  9997,2 52541  53.2175  54.1969 0001201  89.2990 270.8140 15.08841936 56746,6917.874,95.437,540.57,538.909,0.0
52541.0,STARLINK-3845,PAYLOAD,2023-05-21 01:04:26,15.08855735,0.0001194,53.217,49.443,92.8909,267.222,0.0001499,2.1e-05,0.0,0 STARLINK-3845,1 52541U 22051J   23141.04474678  .00002100  00000-0  14990-3 0  9997,2 52541  53.2170  49.4430 0001194  92.8909 267.2220 15.08855735 56901,6917.832,95.437,540.523,538.871,0.0
52541.0,STARLINK-3845,PAYLOAD,2023-05-21 20:09:04,15.08832778,0.0001251,53.2175,45.8736,98.985,261.1284,-0.00021584,-3.721e-05,0.0,0 STARLINK-3845,1 52541U 22051J   23141.83964028 -.00003721  00000-0 -21584-3 0  9996,2 52541  53.2175  45.8736 0001251  98.9850 261.1284 15.08832778 56951,6917.902,95.438,540.633,538.902,0.0
52541.0,STARLINK-3845,PAYLOAD,2023-05-22 04:06:00,15.08832857,0.0001297,53.2175,44.386,97.0486,263.0654,-8.2471e-05,-1.6e-05,0.0,0 STARLINK-3845,1 52541U 22051J   23142.17084331 -.00001600  00000-0 -82471-4 0  9991,2 52541  53.2175  44.3860 0001297  97.0486 263.0654 15.08832857 57072,6917.902,95.438,540.664,538.87,0.0
52541.0,STARLINK-3845,PAYLOAD,2023-05-22 10:27:33,15.08835774,0.0001321,53.2171,43.1976,117.706,242.4067,2.075e-05,4.2e-07,0.0,0 STARLINK-3845,1 52541U 22051J   23142.43580230  .00000042  00000-0  20750-4 0  9998,2 52541  53.2171  43.1976 0001321 117.7060 242.4067 15.08835774 57046,6917.893,95.438,540.672,538.844,0.0
52541.0,STARLINK-3845,PAYLOAD,2023-05-22 19:59:51,15.08846158,0.0001122,53.2176,41.4121,97.3856,262.7263,2.3114e-05,8e-07,0.0,0 STARLINK-3845,1 52541U 22051J   23142.83323841  .00000080  00000-0  23114-4 0  9994,2 52541  53.2176  41.4121 0001122  97.3856 262.7263 15.08846158 57107,6917.862,95.437,540.503,538.95,0.0
52541.0,STARLINK-3845,PAYLOAD,2023-05-23 02:21:24,15.08850583,0.0001231,53.2169,40.2231,99.5637,260.5495,0.00035274,5.332e-05,0.0,0 STARLINK-3845,1 52541U 22051J   23143.09819826  .00005332  00000-0  35274-3 0  9990,2 52541  53.2169  40.2231 0001231  99.5637 260.5495 15.08850583 57212,6917.848,95.437,540.565,538.861,0.0
52541.0,STARLINK-3845,PAYLOAD,2023-05-23 23:01:25,15.08840812,0.0001257,53.2171,36.3573,91.8337,268.28,0.0002643,3.921e-05,0.0,0 STARLINK-3845,1 52541U 22051J   23143.95932664  .00003921  00000-0  26430-3 0  9997,2 52541  53.2171  36.3573 0001257  91.8337 268.2800 15.08840812 57275,6917.878,95.438,540.612,538.873,0.0
52541.0,STARLINK-3845,PAYLOAD,2023-05-24 00:36:48,15.08843549,0.0001183,53.2175,36.0589,102.622,257.4904,0.00030017,4.493e-05,0.0,0 STARLINK-3845,1 52541U 22051J   23144.02556566  .00004493  00000-0  30017-3 0  9990,2 52541  53.2175  36.0589 0001183 102.6220 257.4904 15.08843549 57357,6917.87,95.437,540.553,538.916,0.0
52541.0,STARLINK-3845,PAYLOAD,2023-05-25 16:21:27,15.08846545,0.0001152,53.2171,28.6226,96.9719,263.1405,0.00010398,1.368e-05,0.0,0 STARLINK-3845,1 52541U 22051J   23145.68156626  .00001368  00000-0  10398-3 0  9994,2 52541  53.2171  28.6226 0001152  96.9719 263.1405 15.08846545 57609,6917.86,95.437,540.522,538.928,0.0
